STARLINK-35768          
1 66832U 25280M   25355.25001157  .00060590  00000+0  98196-3 0  9998
2 66832  69.9997 175.0819 0003254 269.1627 149.7707 15.52466151  4267
STARLINK-35858          
1 66833U 25280N   25355.25001157  .00058554  00000+0  94925-3 0  9992
2 66833  69.9997 175.0803 0003328 264.5427 156.3076 15.52467240  4263
STARLINK-35840          
1 66834U 25280P   25355.25001157  .00064109  00000+0  10385-2 0  9993
2 66834  69.9997 175.0768 0003149 267.0750 155.6947 15.52464329  4266
STARLINK-35890          
1 66835U 25280Q   25355.25001157  .00086648  00000+0  13989-2 0  9999
2 66835  69.9997 175.0732 0003144 268.4169 156.2606 15.52459006  4267
STARLINK-35838          
1 66836U 25280R   25355.25001157  .00065104  00000+0  10542-2 0  9996
2 66836  69.9998 175.0719 0003108 269.5703 157.0195 15.52468631  4266
STARLINK-35729          
1 66837U 25280S   25355.25001157  .00063051  00000+0  10215-2 0  9993
2 66837  70.0000 175.0697 0003495 269.0557 159.4635 15.52463532  4260
STARLINK-35886          
1 66838U 25280T   25355.25001157  .00063692  00000+0  10322-2 0  9994
2 66838  70.0000 175.0648 0002911 274.0149 158.3606 15.52453846  4265
STARLINK-35717          
1 66839U 25280U   25355.25001157  .00064026  00000+0  10371-2 0  9991
2 66839  70.0000 175.0670 0003237 267.5776 162.8559 15.52465003  4261
STARLINK-35837          
1 66840U 25280V   25355.25001157  .00070888  00000+0  11477-2 0  9994
2 66840  70.0000 175.0625 0003242 269.4903 164.7712 15.52446804  4262
STARLINK-35715          
1 66841U 25280W   25355.25001157  .00063131  00000+0  10226-2 0  9999
2 66841  69.9999 175.0607 0003176 268.2078 167.9686 15.52467902  4260
STARLINK-35769          
1 66842U 25280X   25355.25001157  .00065178  00000+0  10555-2 0  9998
2 66842  70.0000 175.0583 0003086 265.4331 172.6644 15.52465613  4265
STARLINK-35997          
1 66843U 25280Y   25355.25001157  .00061950  00000+0  10037-2 0  9998
2 66843  70.0001 175.0528 0003204 269.0620 172.8664 15.52467813  4267
