CCSDS_OMM_VERS = 2.0
CREATION_DATE  = 
ORIGINATOR     = 

OBJECT_NAME    = STARLINK-35768
OBJECT_ID      = 2025-280M
CENTER_NAME    = EARTH
REF_FRAME      = TEME
TIME_SYSTEM    = UTC
MEAN_ELEMENT_THEORY = SGP/SGP4

EPOCH          = 2025-12-21T06:00:00.999648
MEAN_MOTION    = 15.52466151
ECCENTRICITY   = .00032547
INCLINATION    = 69.9997
RA_OF_ASC_NODE = 175.0819
ARG_OF_PERICENTER = 269.1627
MEAN_ANOMALY   = 149.7707

EPHEMERIS_TYPE = 0
CLASSIFICATION_TYPE = U
NORAD_CAT_ID   = 66832
ELEMENT_SET_NO = 999
REV_AT_EPOCH   = 426
BSTAR          = .98195529E-3
MEAN_MOTION_DOT = .6059E-3
MEAN_MOTION_DDOT = 0

CCSDS_OMM_VERS = 2.0
CREATION_DATE  = 
ORIGINATOR     = 

OBJECT_NAME    = STARLINK-35858
OBJECT_ID      = 2025-280N
CENTER_NAME    = EARTH
REF_FRAME      = TEME
TIME_SYSTEM    = UTC
MEAN_ELEMENT_THEORY = SGP/SGP4

EPOCH          = 2025-12-21T06:00:00.999648
MEAN_MOTION    = 15.52467240
ECCENTRICITY   = .00033285
INCLINATION    = 69.9997
RA_OF_ASC_NODE = 175.0803
ARG_OF_PERICENTER = 264.5427
MEAN_ANOMALY   = 156.3076

EPHEMERIS_TYPE = 0
CLASSIFICATION_TYPE = U
NORAD_CAT_ID   = 66833
ELEMENT_SET_NO = 999
REV_AT_EPOCH   = 426
BSTAR          = .94924919E-3
MEAN_MOTION_DOT = .58554E-3
MEAN_MOTION_DDOT = 0

CCSDS_OMM_VERS = 2.0
CREATION_DATE  = 
ORIGINATOR     = 

OBJECT_NAME    = STARLINK-35840
OBJECT_ID      = 2025-280P
CENTER_NAME    = EARTH
REF_FRAME      = TEME
TIME_SYSTEM    = UTC
MEAN_ELEMENT_THEORY = SGP/SGP4

EPOCH          = 2025-12-21T06:00:00.999648
MEAN_MOTION    = 15.52464329
ECCENTRICITY   = .00031499
INCLINATION    = 69.9997
RA_OF_ASC_NODE = 175.0768
ARG_OF_PERICENTER = 267.0750
MEAN_ANOMALY   = 155.6947

EPHEMERIS_TYPE = 0
CLASSIFICATION_TYPE = U
NORAD_CAT_ID   = 66834
ELEMENT_SET_NO = 999
REV_AT_EPOCH   = 426
BSTAR          = .10384576E-2
MEAN_MOTION_DOT = .64109E-3
MEAN_MOTION_DDOT = 0

CCSDS_OMM_VERS = 2.0
CREATION_DATE  = 
ORIGINATOR     = 

OBJECT_NAME    = STARLINK-35890
OBJECT_ID      = 2025-280Q
CENTER_NAME    = EARTH
REF_FRAME      = TEME
TIME_SYSTEM    = UTC
MEAN_ELEMENT_THEORY = SGP/SGP4

EPOCH          = 2025-12-21T06:00:00.999648
MEAN_MOTION    = 15.52459006
ECCENTRICITY   = .0003144
INCLINATION    = 69.9997
RA_OF_ASC_NODE = 175.0732
ARG_OF_PERICENTER = 268.4169
MEAN_ANOMALY   = 156.2606

EPHEMERIS_TYPE = 0
CLASSIFICATION_TYPE = U
NORAD_CAT_ID   = 66835
ELEMENT_SET_NO = 999
REV_AT_EPOCH   = 426
BSTAR          = .13988874E-2
MEAN_MOTION_DOT = .86648E-3
MEAN_MOTION_DDOT = 0

CCSDS_OMM_VERS = 2.0
CREATION_DATE  = 
ORIGINATOR     = 

OBJECT_NAME    = STARLINK-35838
OBJECT_ID      = 2025-280R
CENTER_NAME    = EARTH
REF_FRAME      = TEME
TIME_SYSTEM    = UTC
MEAN_ELEMENT_THEORY = SGP/SGP4

EPOCH          = 2025-12-21T06:00:00.999648
MEAN_MOTION    = 15.52468631
ECCENTRICITY   = .00031086
INCLINATION    = 69.9998
RA_OF_ASC_NODE = 175.0719
ARG_OF_PERICENTER = 269.5703
MEAN_ANOMALY   = 157.0195

EPHEMERIS_TYPE = 0
CLASSIFICATION_TYPE = U
NORAD_CAT_ID   = 66836
ELEMENT_SET_NO = 999
REV_AT_EPOCH   = 426
BSTAR          = .10542402E-2
MEAN_MOTION_DOT = .65104E-3
MEAN_MOTION_DDOT = 0

CCSDS_OMM_VERS = 2.0
CREATION_DATE  = 
ORIGINATOR     = 

OBJECT_NAME    = STARLINK-35729
OBJECT_ID      = 2025-280S
CENTER_NAME    = EARTH
REF_FRAME      = TEME
TIME_SYSTEM    = UTC
MEAN_ELEMENT_THEORY = SGP/SGP4

EPOCH          = 2025-12-21T06:00:00.999648
MEAN_MOTION    = 15.52463532
ECCENTRICITY   = .00034952
INCLINATION    = 70.0000
RA_OF_ASC_NODE = 175.0697
ARG_OF_PERICENTER = 269.0557
MEAN_ANOMALY   = 159.4635

EPHEMERIS_TYPE = 0
CLASSIFICATION_TYPE = U
NORAD_CAT_ID   = 66837
ELEMENT_SET_NO = 999
REV_AT_EPOCH   = 426
BSTAR          = .10214867E-2
MEAN_MOTION_DOT = .63051E-3
MEAN_MOTION_DDOT = 0

CCSDS_OMM_VERS = 2.0
CREATION_DATE  = 
ORIGINATOR     = 

OBJECT_NAME    = STARLINK-35886
OBJECT_ID      = 2025-280T
CENTER_NAME    = EARTH
REF_FRAME      = TEME
TIME_SYSTEM    = UTC
MEAN_ELEMENT_THEORY = SGP/SGP4

EPOCH          = 2025-12-21T06:00:00.999648
MEAN_MOTION    = 15.52453846
ECCENTRICITY   = .00029112
INCLINATION    = 70.0000
RA_OF_ASC_NODE = 175.0648
ARG_OF_PERICENTER = 274.0149
MEAN_ANOMALY   = 158.3606

EPHEMERIS_TYPE = 0
CLASSIFICATION_TYPE = U
NORAD_CAT_ID   = 66838
ELEMENT_SET_NO = 999
REV_AT_EPOCH   = 426
BSTAR          = .10321908E-2
MEAN_MOTION_DOT = .63692E-3
MEAN_MOTION_DDOT = 0

CCSDS_OMM_VERS = 2.0
CREATION_DATE  = 
ORIGINATOR     = 

OBJECT_NAME    = STARLINK-35717
OBJECT_ID      = 2025-280U
CENTER_NAME    = EARTH
REF_FRAME      = TEME
TIME_SYSTEM    = UTC
MEAN_ELEMENT_THEORY = SGP/SGP4

EPOCH          = 2025-12-21T06:00:00.999648
MEAN_MOTION    = 15.52465003
ECCENTRICITY   = .00032376
INCLINATION    = 70.0000
RA_OF_ASC_NODE = 175.0670
ARG_OF_PERICENTER = 267.5776
MEAN_ANOMALY   = 162.8559

EPHEMERIS_TYPE = 0
CLASSIFICATION_TYPE = U
NORAD_CAT_ID   = 66839
ELEMENT_SET_NO = 999
REV_AT_EPOCH   = 426
BSTAR          = .10370893E-2
MEAN_MOTION_DOT = .64026E-3
MEAN_MOTION_DDOT = 0

CCSDS_OMM_VERS = 2.0
CREATION_DATE  = 
ORIGINATOR     = 

OBJECT_NAME    = STARLINK-35837
OBJECT_ID      = 2025-280V
CENTER_NAME    = EARTH
REF_FRAME      = TEME
TIME_SYSTEM    = UTC
MEAN_ELEMENT_THEORY = SGP/SGP4

EPOCH          = 2025-12-21T06:00:00.999648
MEAN_MOTION    = 15.52446804
ECCENTRICITY   = .00032429
INCLINATION    = 70.0000
RA_OF_ASC_NODE = 175.0625
ARG_OF_PERICENTER = 269.4903
MEAN_ANOMALY   = 164.7712

EPHEMERIS_TYPE = 0
CLASSIFICATION_TYPE = U
NORAD_CAT_ID   = 66840
ELEMENT_SET_NO = 999
REV_AT_EPOCH   = 426
BSTAR          = .11477062E-2
MEAN_MOTION_DOT = .70888E-3
MEAN_MOTION_DDOT = 0

CCSDS_OMM_VERS = 2.0
CREATION_DATE  = 
ORIGINATOR     = 

OBJECT_NAME    = STARLINK-35715
OBJECT_ID      = 2025-280W
CENTER_NAME    = EARTH
REF_FRAME      = TEME
TIME_SYSTEM    = UTC
MEAN_ELEMENT_THEORY = SGP/SGP4

EPOCH          = 2025-12-21T06:00:00.999648
MEAN_MOTION    = 15.52467902
ECCENTRICITY   = .00031768
INCLINATION    = 69.9999
RA_OF_ASC_NODE = 175.0607
ARG_OF_PERICENTER = 268.2078
MEAN_ANOMALY   = 167.9686

EPHEMERIS_TYPE = 0
CLASSIFICATION_TYPE = U
NORAD_CAT_ID   = 66841
ELEMENT_SET_NO = 999
REV_AT_EPOCH   = 426
BSTAR          = .1022648E-2
MEAN_MOTION_DOT = .63131E-3
MEAN_MOTION_DDOT = 0

CCSDS_OMM_VERS = 2.0
CREATION_DATE  = 
ORIGINATOR     = 

OBJECT_NAME    = STARLINK-35769
OBJECT_ID      = 2025-280X
CENTER_NAME    = EARTH
REF_FRAME      = TEME
TIME_SYSTEM    = UTC
MEAN_ELEMENT_THEORY = SGP/SGP4

EPOCH          = 2025-12-21T06:00:00.999648
MEAN_MOTION    = 15.52465613
ECCENTRICITY   = .00030864
INCLINATION    = 70.0000
RA_OF_ASC_NODE = 175.0583
ARG_OF_PERICENTER = 265.4331
MEAN_ANOMALY   = 172.6644

EPHEMERIS_TYPE = 0
CLASSIFICATION_TYPE = U
NORAD_CAT_ID   = 66842
ELEMENT_SET_NO = 999
REV_AT_EPOCH   = 426
BSTAR          = .10555441E-2
MEAN_MOTION_DOT = .65178E-3
MEAN_MOTION_DDOT = 0

CCSDS_OMM_VERS = 2.0
CREATION_DATE  = 
ORIGINATOR     = 

OBJECT_NAME    = STARLINK-35997
OBJECT_ID      = 2025-280Y
CENTER_NAME    = EARTH
REF_FRAME      = TEME
TIME_SYSTEM    = UTC
MEAN_ELEMENT_THEORY = SGP/SGP4

EPOCH          = 2025-12-21T06:00:00.999648
MEAN_MOTION    = 15.52467813
ECCENTRICITY   = .00032045
INCLINATION    = 70.0001
RA_OF_ASC_NODE = 175.0528
ARG_OF_PERICENTER = 269.0620
MEAN_ANOMALY   = 172.8664

EPHEMERIS_TYPE = 0
CLASSIFICATION_TYPE = U
NORAD_CAT_ID   = 66843
ELEMENT_SET_NO = 999
REV_AT_EPOCH   = 426
BSTAR          = .10037117E-2
MEAN_MOTION_DOT = .6195E-3
MEAN_MOTION_DDOT = 0

